start=new Date('2022-07-01T00:00:00.000Z').valueOf();
sats=[{"COUNTRY_CODE":"US","BSTAR":"-0.00161250000000","MEAN_ELEMENT_THEORY":"SGP4","OBJECT_NAME":"STARLINK-3587","EPHEMERIS_TYPE":"0","TIME_SYSTEM":"UTC","GP_ID":"207177911","PERIAPSIS":"538.290","MEAN_MOTION_DOT":"-0.00025867","ELEMENT_SET_NO":"999","INCLINATION":"53.2189","EPOCH":"2022-06-30T22:00:00.999936","TLE_LINE1":"1 51892U 22022AS  22181.91667824 -.00025867  00000-0 -16125-2 0  9997","DECAY_DATE":null,"APOAPSIS":"541.142","OBJECT_ID":"2022-022AS","PERIOD":"95.437","MEAN_MOTION_DDOT":"0.0000000000000","NORAD_CAT_ID":"51892","RCS_SIZE":"LARGE","SITE":"AFETR","SEMIMAJOR_AXIS":"6917.851","OBJECT_TYPE":"PAYLOAD","ECCENTRICITY":"0.00020610","FILE":"3505946","REF_FRAME":"TEME","CENTER_NAME":"EARTH","MEAN_ANOMALY":"54.7168","ARG_OF_PERICENTER":"44.1713","REV_AT_EPOCH":"130","LAUNCH_DATE":"2022-03-03","CLASSIFICATION_TYPE":"U","TLE_LINE2":"2 51892  53.2189 289.4997 0002061  44.1713  54.7168 15.08849637  1308","MEAN_MOTION":"15.08849637","RA_OF_ASC_NODE":"289.4997"},{"MEAN_MOTION_DOT":"-0.00027723","MEAN_ELEMENT_THEORY":"SGP4","BSTAR":"-0.00172960000000","COUNTRY_CODE":"US","PERIAPSIS":"538.839","GP_ID":"207178663","OBJECT_NAME":"STARLINK-3579","EPHEMERIS_TYPE":"0","TIME_SYSTEM":"UTC","PERIOD":"95.436","APOAPSIS":"540.535","OBJECT_ID":"2022-022AT","DECAY_DATE":null,"TLE_LINE1":"1 51893U 22022AT  22181.91667824 -.00027723  00000-0 -17296-2 0  9991","ELEMENT_SET_NO":"999","EPOCH":"2022-06-30T22:00:00.999936","INCLINATION":"53.2160","RCS_SIZE":"LARGE","SITE":"AFETR","NORAD_CAT_ID":"51893","OBJECT_TYPE":"PAYLOAD","SEMIMAJOR_AXIS":"6917.822","MEAN_MOTION_DDOT":"0.0000000000000","REV_AT_EPOCH":"130","ARG_OF_PERICENTER":"51.9754","RA_OF_ASC_NODE":"289.4924","TLE_LINE2":"2 51893  53.2160 289.4924 0001226  51.9754 126.8412 15.08859118  1309","MEAN_MOTION":"15.08859118","LAUNCH_DATE":"2022-03-03","CLASSIFICATION_TYPE":"U","ECCENTRICITY":"0.00012260","MEAN_ANOMALY":"126.8412","CENTER_NAME":"EARTH","REF_FRAME":"TEME","FILE":"3505946"},{"APOAPSIS":"540.876","OBJECT_ID":"2022-022AU","PERIOD":"95.437","TLE_LINE1":"1 51894U 22022AU  22181.91667824 -.00026533  00000-0 -16545-2 0  9996","DECAY_DATE":null,"ELEMENT_SET_NO":"999","EPOCH":"2022-06-30T22:00:00.999936","INCLINATION":"53.2165","MEAN_MOTION_DOT":"-0.00026533","BSTAR":"-0.00165450000000","MEAN_ELEMENT_THEORY":"SGP4","COUNTRY_CODE":"US","PERIAPSIS":"538.527","EPHEMERIS_TYPE":"0","OBJECT_NAME":"STARLINK-3595","TIME_SYSTEM":"UTC","GP_ID":"207179411","ARG_OF_PERICENTER":"49.0956","REV_AT_EPOCH":"130","TLE_LINE2":"2 51894  53.2165 289.4938 0001698  49.0956 109.6804 15.08854323  1302","MEAN_MOTION":"15.08854323","RA_OF_ASC_NODE":"289.4938","LAUNCH_DATE":"2022-03-03","CLASSIFICATION_TYPE":"U","ECCENTRICITY":"0.00016980","CENTER_NAME":"EARTH","MEAN_ANOMALY":"109.6804","FILE":"3505946","REF_FRAME":"TEME","RCS_SIZE":"LARGE","SITE":"AFETR","NORAD_CAT_ID":"51894","OBJECT_TYPE":"PAYLOAD","SEMIMAJOR_AXIS":"6917.837","MEAN_MOTION_DDOT":"0.0000000000000"},{"ARG_OF_PERICENTER":"44.8681","REV_AT_EPOCH":"130","LAUNCH_DATE":"2022-03-03","CLASSIFICATION_TYPE":"U","MEAN_MOTION":"15.08850893","TLE_LINE2":"2 51895  53.2156 289.4921 0001555  44.8681 154.0357 15.08850893  1300","RA_OF_ASC_NODE":"289.4921","ECCENTRICITY":"0.00015550","FILE":"3505946","REF_FRAME":"TEME","MEAN_ANOMALY":"154.0357","CENTER_NAME":"EARTH","NORAD_CAT_ID":"51895","RCS_SIZE":"LARGE","SITE":"AFETR","SEMIMAJOR_AXIS":"6917.847","OBJECT_TYPE":"PAYLOAD","MEAN_MOTION_DDOT":"0.0000000000000","TLE_LINE1":"1 51895U 22022AV  22181.91667824 -.00028130  00000-0 -17557-2 0  9996","DECAY_DATE":null,"OBJECT_ID":"2022-022AV","APOAPSIS":"540.788","PERIOD":"95.437","ELEMENT_SET_NO":"999","INCLINATION":"53.2156","EPOCH":"2022-06-30T22:00:00.999936","MEAN_MOTION_DOT":"-0.00028130","COUNTRY_CODE":"US","BSTAR":"-0.00175570000000","MEAN_ELEMENT_THEORY":"SGP4","EPHEMERIS_TYPE":"0","TIME_SYSTEM":"UTC","OBJECT_NAME":"STARLINK-3594","GP_ID":"207178161","PERIAPSIS":"538.636"},{"DECAY_DATE":null,"TLE_LINE1":"1 51896U 22022AW  22181.91667824 -.00028538  00000-0 -17810-2 0  9991","PERIOD":"95.436","APOAPSIS":"540.851","OBJECT_ID":"2022-022AW","INCLINATION":"53.2152","EPOCH":"2022-06-30T22:00:00.999936","ELEMENT_SET_NO":"999","MEAN_MOTION_DOT":"-0.00028538","GP_ID":"207178411","EPHEMERIS_TYPE":"0","TIME_SYSTEM":"UTC","OBJECT_NAME":"STARLINK-3593","PERIAPSIS":"538.504","COUNTRY_CODE":"US","MEAN_ELEMENT_THEORY":"SGP4","BSTAR":"-0.00178100000000","CLASSIFICATION_TYPE":"U","LAUNCH_DATE":"2022-03-03","RA_OF_ASC_NODE":"289.4922","TLE_LINE2":"2 51896  53.2152 289.4922 0001696  49.9439 143.6901 15.08862231  1309","MEAN_MOTION":"15.08862231","REV_AT_EPOCH":"130","ARG_OF_PERICENTER":"49.9439","REF_FRAME":"TEME","FILE":"3505946","MEAN_ANOMALY":"143.6901","CENTER_NAME":"EARTH","ECCENTRICITY":"0.00016960","SEMIMAJOR_AXIS":"6917.812","OBJECT_TYPE":"PAYLOAD","NORAD_CAT_ID":"51896","SITE":"AFETR","RCS_SIZE":"LARGE","MEAN_MOTION_DDOT":"0.0000000000000"},{"EPHEMERIS_TYPE":"0","TIME_SYSTEM":"UTC","OBJECT_NAME":"STARLINK-3598","GP_ID":"207179163","PERIAPSIS":"538.752","COUNTRY_CODE":"US","BSTAR":"-0.00185720000000","MEAN_ELEMENT_THEORY":"SGP4","MEAN_MOTION_DOT":"-0.00029737","INCLINATION":"53.2166","EPOCH":"2022-06-30T22:00:00.999936","ELEMENT_SET_NO":"999","TLE_LINE1":"1 51897U 22022AX  22181.91667824 -.00029737  00000-0 -18572-2 0  9990","DECAY_DATE":null,"APOAPSIS":"540.637","OBJECT_ID":"2022-022AX","PERIOD":"95.436","MEAN_MOTION_DDOT":"0.0000000000000","SEMIMAJOR_AXIS":"6917.829","OBJECT_TYPE":"PAYLOAD","NORAD_CAT_ID":"51897","RCS_SIZE":"LARGE","SITE":"AFETR","FILE":"3505946","REF_FRAME":"TEME","MEAN_ANOMALY":"152.3191","CENTER_NAME":"EARTH","ECCENTRICITY":"0.00013630","LAUNCH_DATE":"2022-03-03","CLASSIFICATION_TYPE":"U","TLE_LINE2":"2 51897  53.2166 289.4925 0001363  66.5322 152.3191 15.08856676  1309","MEAN_MOTION":"15.08856676","RA_OF_ASC_NODE":"289.4925","ARG_OF_PERICENTER":"66.5322","REV_AT_EPOCH":"130"},{"TLE_LINE1":"1 51898U 22022AY  22181.91667824 -.00078176  00000-0 -49426-2 0  9994","DECAY_DATE":null,"OBJECT_ID":"2022-022AY","APOAPSIS":"540.411","PERIOD":"95.435","ELEMENT_SET_NO":"999","INCLINATION":"53.2166","EPOCH":"2022-06-30T22:00:00.999936","MEAN_MOTION_DOT":"-0.00078176","COUNTRY_CODE":"US","BSTAR":"-0.00494260000000","MEAN_ELEMENT_THEORY":"SGP4","EPHEMERIS_TYPE":"0","OBJECT_NAME":"STARLINK-3597","TIME_SYSTEM":"UTC","GP_ID":"207178912","PERIAPSIS":"538.846","ARG_OF_PERICENTER":"68.5877","REV_AT_EPOCH":"130","LAUNCH_DATE":"2022-03-03","CLASSIFICATION_TYPE":"U","MEAN_MOTION":"15.08878247","TLE_LINE2":"2 51898  53.2166 289.4924 0001131  68.5877 170.2989 15.08878247  1301","RA_OF_ASC_NODE":"289.4924","ECCENTRICITY":"0.00011310","FILE":"3505946","REF_FRAME":"TEME","CENTER_NAME":"EARTH","MEAN_ANOMALY":"170.2989","NORAD_CAT_ID":"51898","SITE":"AFETR","RCS_SIZE":"LARGE","SEMIMAJOR_AXIS":"6917.763","OBJECT_TYPE":"PAYLOAD","MEAN_MOTION_DDOT":"0.0000000000000"},{"PERIOD":"95.437","APOAPSIS":"541.071","OBJECT_ID":"2022-025A","DECAY_DATE":null,"TLE_LINE1":"1 51956U 22025A   22181.91667824  .00013286  00000-0  85124-3 0  9997","EPOCH":"2022-06-30T22:00:00.999936","INCLINATION":"53.2164","ELEMENT_SET_NO":"999","MEAN_MOTION_DOT":"0.00013286","PERIAPSIS":"538.408","GP_ID":"207177915","OBJECT_NAME":"STARLINK-3700","EPHEMERIS_TYPE":"0","TIME_SYSTEM":"UTC","MEAN_ELEMENT_THEORY":"SGP4","BSTAR":"0.00085124000000","COUNTRY_CODE":"US","RA_OF_ASC_NODE":"319.5128","TLE_LINE2":"2 51956  53.2164 319.5128 0001925  48.9237  64.9376 15.08841841  1307","MEAN_MOTION":"15.08841841","CLASSIFICATION_TYPE":"U","LAUNCH_DATE":"2022-03-09","REV_AT_EPOCH":"130","ARG_OF_PERICENTER":"48.9237","MEAN_ANOMALY":"64.9376","CENTER_NAME":"EARTH","REF_FRAME":"TEME","FILE":"3505946","ECCENTRICITY":"0.00019250","OBJECT_TYPE":"PAYLOAD","SEMIMAJOR_AXIS":"6917.875","SITE":"AFETR","RCS_SIZE":"LARGE","NORAD_CAT_ID":"51956","MEAN_MOTION_DDOT":"0.0000000000000"},{"GP_ID":"207178667","EPHEMERIS_TYPE":"0","OBJECT_NAME":"STARLINK-3694","TIME_SYSTEM":"UTC","PERIAPSIS":"538.544","COUNTRY_CODE":"US","MEAN_ELEMENT_THEORY":"SGP4","BSTAR":"-0.00059494000000","MEAN_MOTION_DOT":"-0.00009749","INCLINATION":"53.2156","EPOCH":"2022-06-30T22:00:00.999936","ELEMENT_SET_NO":"999","DECAY_DATE":null,"TLE_LINE1":"1 51957U 22025B   22181.91667824 -.00009749  00000-0 -59494-3 0  9990","PERIOD":"95.436","OBJECT_ID":"2022-025B","APOAPSIS":"540.842","MEAN_MOTION_DDOT":"0.0000000000000","SEMIMAJOR_AXIS":"6917.828","OBJECT_TYPE":"PAYLOAD","NORAD_CAT_ID":"51957","SITE":"AFETR","RCS_SIZE":"LARGE","REF_FRAME":"TEME","FILE":"3505946","CENTER_NAME":"EARTH","MEAN_ANOMALY":"163.9716","ECCENTRICITY":"0.00016610","CLASSIFICATION_TYPE":"U","LAUNCH_DATE":"2022-03-09","RA_OF_ASC_NODE":"319.5073","MEAN_MOTION":"15.08857102","TLE_LINE2":"2 51957  53.2156 319.5073 0001661  49.8856 163.9716 15.08857102  1307","REV_AT_EPOCH":"130","ARG_OF_PERICENTER":"49.8856"},{"ELEMENT_SET_NO":"999","EPOCH":"2022-06-30T22:00:00.999936","INCLINATION":"53.2176","PERIOD":"95.438","APOAPSIS":"541.103","OBJECT_ID":"2022-025C","DECAY_DATE":null,"TLE_LINE1":"1 51958U 22025C   22181.91667824  .00012823  00000-0  82240-3 0  9991","MEAN_ELEMENT_THEORY":"SGP4","BSTAR":"0.00082240000000","COUNTRY_CODE":"US","PERIAPSIS":"538.411","GP_ID":"207179415","EPHEMERIS_TYPE":"0","TIME_SYSTEM":"UTC","OBJECT_NAME":"STARLINK-3692","MEAN_MOTION_DOT":"0.00012823","ECCENTRICITY":"0.00019460","MEAN_ANOMALY":"90.8587","CENTER_NAME":"EARTH","REF_FRAME":"TEME","FILE":"3505946","REV_AT_EPOCH":"130","ARG_OF_PERICENTER":"43.0346","RA_OF_ASC_NODE":"319.5160","TLE_LINE2":"2 51958  53.2176 319.5160 0001946  43.0346  90.8587 15.08836245  1302","MEAN_MOTION":"15.08836245","CLASSIFICATION_TYPE":"U","LAUNCH_DATE":"2022-03-09","MEAN_MOTION_DDOT":"0.0000000000000","RCS_SIZE":"LARGE","SITE":"AFETR","NORAD_CAT_ID":"51958","OBJECT_TYPE":"PAYLOAD","SEMIMAJOR_AXIS":"6917.892"}];
